[{"OBJECT_NAME":"IRIDIUM 151","OBJECT_ID":"2017-083E","EPOCH":"2026-03-07T02:04:39.146016","MEAN_MOTION":14.3421753,"ECCENTRICITY":0.0002061,"INCLINATION":86.4015,"RA_OF_ASC_NODE":4.7232,"ARG_OF_PERICENTER":86.7179,"MEAN_ANOMALY":273.4253,"EPHEMERIS_TYPE":0,"CLASSIFICATION_TYPE":"U","NORAD_CAT_ID":43074,"ELEMENT_SET_NO":999,"REV_AT_EPOCH":42950,"BSTAR":-1.2783e-5,"MEAN_MOTION_DOT":-1.6e-7,"MEAN_MOTION_DDOT":0},{"OBJECT_NAME":"IRIDIUM 134","OBJECT_ID":"2017-083F","EPOCH":"2026-03-07T02:59:27.115296","MEAN_MOTION":14.34218402,"ECCENTRICITY":0.000208,"INCLINATION":86.4029,"RA_OF_ASC_NODE":4.7133,"ARG_OF_PERICENTER":86.2822,"MEAN_ANOMALY":273.8612,"EPHEMERIS_TYPE":0,"CLASSIFICATION_TYPE":"U","NORAD_CAT_ID":43075,"ELEMENT_SET_NO":999,"REV_AT_EPOCH":42947,"BSTAR":0.00013279,"MEAN_MOTION_DOT":3.92e-6,"MEAN_MOTION_DDOT":0},{"OBJECT_NAME":"IRIDIUM 137","OBJECT_ID":"2017-083G","EPOCH":"2026-03-07T03:17:43.253952","MEAN_MOTION":14.34217188,"ECCENTRICITY":0.0002288,"INCLINATION":86.4021,"RA_OF_ASC_NODE":4.7987,"ARG_OF_PERICENTER":96.1633,"MEAN_ANOMALY":263.9823,"EPHEMERIS_TYPE":0,"CLASSIFICATION_TYPE":"U","NORAD_CAT_ID":43076,"ELEMENT_SET_NO":999,"REV_AT_EPOCH":42954,"BSTAR":-2.0278e-5,"MEAN_MOTION_DOT":-3.7e-7,"MEAN_MOTION_DDOT":0},{"OBJECT_NAME":"IRIDIUM 141","OBJECT_ID":"2017-083H","EPOCH":"2026-03-06T08:43:27.667488","MEAN_MOTION":14.34221749,"ECCENTRICITY":0.00022124,"INCLINATION":86.4023,"RA_OF_ASC_NODE":4.9589,"ARG_OF_PERICENTER":82.3882,"MEAN_ANOMALY":277.7565,"EPHEMERIS_TYPE":0,"CLASSIFICATION_TYPE":"U","NORAD_CAT_ID":43077,"ELEMENT_SET_NO":999,"REV_AT_EPOCH":42943,"BSTAR":0.00011002606,"MEAN_MOTION_DOT":3.28e-6,"MEAN_MOTION_DDOT":0},{"OBJECT_NAME":"IRIDIUM 153","OBJECT_ID":"2017-083J","EPOCH":"2026-03-07T03:40:11.450784","MEAN_MOTION":14.34217184,"ECCENTRICITY":0.0002127,"INCLINATION":86.4029,"RA_OF_ASC_NODE":333.1416,"ARG_OF_PERICENTER":76.588,"MEAN_ANOMALY":283.5553,"EPHEMERIS_TYPE":0,"CLASSIFICATION_TYPE":"U","NORAD_CAT_ID":43078,"ELEMENT_SET_NO":999,"REV_AT_EPOCH":43065,"BSTAR":9.4079e-5,"MEAN_MOTION_DOT":2.83e-6,"MEAN_MOTION_DDOT":0},{"OBJECT_NAME":"IRIDIUM 131","OBJECT_ID":"2017-083K","EPOCH":"2026-03-07T04:30:47.041344","MEAN_MOTION":14.34219504,"ECCENTRICITY":0.0002301,"INCLINATION":86.4027,"RA_OF_ASC_NODE":4.7935,"ARG_OF_PERICENTER":84.7858,"MEAN_ANOMALY":275.36,"EPHEMERIS_TYPE":0,"CLASSIFICATION_TYPE":"U","NORAD_CAT_ID":43079,"ELEMENT_SET_NO":999,"REV_AT_EPOCH":42948,"BSTAR":0.00012371,"MEAN_MOTION_DOT":3.66e-6,"MEAN_MOTION_DDOT":0},{"OBJECT_NAME":"IRIDIUM 144","OBJECT_ID":"2018-030A","EPOCH":"2026-03-07T03:49:19.409952","MEAN_MOTION":14.34217639,"ECCENTRICITY":0.0002026,"INCLINATION":86.4008,"RA_OF_ASC_NODE":333.0718,"ARG_OF_PERICENTER":90.3754,"MEAN_ANOMALY":269.7673,"EPHEMERIS_TYPE":0,"CLASSIFICATION_TYPE":"U","NORAD_CAT_ID":43249,"ELEMENT_SET_NO":999,"REV_AT_EPOCH":41551,"BSTAR":-5.0339e-7,"MEAN_MOTION_DOT":1.8e-7,"MEAN_MOTION_DDOT":0},{"OBJECT_NAME":"IRIDIUM 149","OBJECT_ID":"2018-030B","EPOCH":"2026-03-07T03:58:27.414048","MEAN_MOTION":14.34217528,"ECCENTRICITY":0.0002063,"INCLINATION":86.4009,"RA_OF_ASC_NODE":333.0372,"ARG_OF_PERICENTER":83.1694,"MEAN_ANOMALY":276.9736,"EPHEMERIS_TYPE":0,"CLASSIFICATION_TYPE":"U","NORAD_CAT_ID":43250,"ELEMENT_SET_NO":999,"REV_AT_EPOCH":41553,"BSTAR":-6.5812e-6,"MEAN_MOTION_DOT":1.0e-8,"MEAN_MOTION_DDOT":0},{"OBJECT_NAME":"IRIDIUM 157","OBJECT_ID":"2018-030C","EPOCH":"2026-03-07T02:45:23.262912","MEAN_MOTION":14.34218822,"ECCENTRICITY":0.0002158,"INCLINATION":86.4012,"RA_OF_ASC_NODE":333.1094,"ARG_OF_PERICENTER":84.6954,"MEAN_ANOMALY":275.4488,"EPHEMERIS_TYPE":0,"CLASSIFICATION_TYPE":"U","NORAD_CAT_ID":43251,"ELEMENT_SET_NO":999,"REV_AT_EPOCH":41550,"BSTAR":4.2774e-5,"MEAN_MOTION_DOT":1.4e-6,"MEAN_MOTION_DDOT":0},{"OBJECT_NAME":"IRIDIUM 140","OBJECT_ID":"2018-030D","EPOCH":"2026-03-07T01:32:19.394304","MEAN_MOTION":14.34217832,"ECCENTRICITY":0.0001999,"INCLINATION":86.4012,"RA_OF_ASC_NODE":333.1435,"ARG_OF_PERICENTER":84.6729,"MEAN_ANOMALY":275.4695,"EPHEMERIS_TYPE":0,"CLASSIFICATION_TYPE":"U","NORAD_CAT_ID":43252,"ELEMENT_SET_NO":999,"REV_AT_EPOCH":41555,"BSTAR":7.9674e-6,"MEAN_MOTION_DOT":4.2e-7,"MEAN_MOTION_DDOT":0},{"OBJECT_NAME":"IRIDIUM 145","OBJECT_ID":"2018-030E","EPOCH":"2026-03-07T04:34:58.701216","MEAN_MOTION":14.34221411,"ECCENTRICITY":0.0001918,"INCLINATION":86.4011,"RA_OF_ASC_NODE":333.063,"ARG_OF_PERICENTER":94.8117,"MEAN_ANOMALY":265.3298,"EPHEMERIS_TYPE":0,"CLASSIFICATION_TYPE":"U","NORAD_CAT_ID":43253,"ELEMENT_SET_NO":999,"REV_AT_EPOCH":41550,"BSTAR":0.00011377,"MEAN_MOTION_DOT":3.38e-6,"MEAN_MOTION_DDOT":0},{"OBJECT_NAME":"IRIDIUM 146","OBJECT_ID":"2018-030F","EPOCH":"2026-03-07T04:07:35.382720","MEAN_MOTION":14.34216748,"ECCENTRICITY":0.000215,"INCLINATION":86.4013,"RA_OF_ASC_NODE":333.0835,"ARG_OF_PERICENTER":89.7602,"MEAN_ANOMALY":270.384,"EPHEMERIS_TYPE":0,"CLASSIFICATION_TYPE":"U","NORAD_CAT_ID":43254,"ELEMENT_SET_NO":999,"REV_AT_EPOCH":41551,"BSTAR":9.182e-5,"MEAN_MOTION_DOT":2.77e-6,"MEAN_MOTION_DDOT":0},{"OBJECT_NAME":"IRIDIUM 148","OBJECT_ID":"2018-030G","EPOCH":"2026-03-07T03:21:55.430496","MEAN_MOTION":14.34217206,"ECCENTRICITY":0.0002082,"INCLINATION":86.401,"RA_OF_ASC_NODE":333.1381,"ARG_OF_PERICENTER":86.5878,"MEAN_ANOMALY":273.5556,"EPHEMERIS_TYPE":0,"CLASSIFICATION_TYPE":"U","NORAD_CAT_ID":43255,"ELEMENT_SET_NO":999,"REV_AT_EPOCH":41554,"BSTAR":-3.8601e-5,"MEAN_MOTION_DOT":-8.8e-7,"MEAN_MOTION_DDOT":0},{"OBJECT_NAME":"IRIDIUM 142","OBJECT_ID":"2018-030H","EPOCH":"2026-03-07T04:16:43.392864","MEAN_MOTION":14.34217414,"ECCENTRICITY":0.0001881,"INCLINATION":86.4008,"RA_OF_ASC_NODE":333.015,"ARG_OF_PERICENTER":92.9443,"MEAN_ANOMALY":267.1968,"EPHEMERIS_TYPE":0,"CLASSIFICATION_TYPE":"U","NORAD_CAT_ID":43256,"ELEMENT_SET_NO":999,"REV_AT_EPOCH":41551,"BSTAR":-1.1493e-5,"MEAN_MOTION_DOT":-1.2e-7,"MEAN_MOTION_DDOT":0},{"OBJECT_NAME":"IRIDIUM 150","OBJECT_ID":"2018-030J","EPOCH":"2026-03-07T03:31:03.351648","MEAN_MOTION":14.34217964,"ECCENTRICITY":0.0002056,"INCLINATION":86.4013,"RA_OF_ASC_NODE":333.1413,"ARG_OF_PERICENTER":85.8951,"MEAN_ANOMALY":274.2479,"EPHEMERIS_TYPE":0,"CLASSIFICATION_TYPE":"U","NORAD_CAT_ID":43257,"ELEMENT_SET_NO":999,"REV_AT_EPOCH":41553,"BSTAR":3.8202e-5,"MEAN_MOTION_DOT":1.27e-6,"MEAN_MOTION_DDOT":0},{"OBJECT_NAME":"IRIDIUM 143","OBJECT_ID":"2018-030K","EPOCH":"2026-03-07T03:03:39.383424","MEAN_MOTION":14.34217408,"ECCENTRICITY":0.0001914,"INCLINATION":86.4012,"RA_OF_ASC_NODE":333.2373,"ARG_OF_PERICENTER":89.6038,"MEAN_ANOMALY":270.5377,"EPHEMERIS_TYPE":0,"CLASSIFICATION_TYPE":"U","NORAD_CAT_ID":43258,"ELEMENT_SET_NO":999,"REV_AT_EPOCH":41546,"BSTAR":-2.0101e-5,"MEAN_MOTION_DOT":-3.7e-7,"MEAN_MOTION_DDOT":0},{"OBJECT_NAME":"IRIDIUM 161","OBJECT_ID":"2018-047C","EPOCH":"2026-03-07T04:23:58.860960","MEAN_MOTION":14.43285691,"ECCENTRICITY":0.0002515,"INCLINATION":86.4506,"RA_OF_ASC_NODE":131.1304,"ARG_OF_PERICENTER":91.1888,"MEAN_ANOMALY":268.9601,"EPHEMERIS_TYPE":0,"CLASSIFICATION_TYPE":"U","NORAD_CAT_ID":43478,"ELEMENT_SET_NO":999,"REV_AT_EPOCH":41042,"BSTAR":0.00010649,"MEAN_MOTION_DOT":3.78e-6,"MEAN_MOTION_DDOT":0}]
