IRIDIUM 151             
1 43074U 17083E   26066.08656419 -.00000016  00000+0 -12783-4 0  9999
2 43074  86.4015   4.7232 0002061  86.7179 273.4253 14.34217530429505
IRIDIUM 134             
1 43075U 17083F   26066.12461939  .00000392  00000+0  13279-3 0  9991
2 43075  86.4029   4.7133 0002080  86.2822 273.8612 14.34218402429470
IRIDIUM 137             
1 43076U 17083G   26066.13730618 -.00000037  00000+0 -20278-4 0  9992
2 43076  86.4021   4.7987 0002288  96.1633 263.9823 14.34217188429542
IRIDIUM 141             
1 43077U 17083H   26065.36351467  .00000328  00000+0  11003-3 0  9994
2 43077  86.4023   4.9589 0002212  82.3882 277.7565 14.34221749429437
IRIDIUM 153             
1 43078U 17083J   26066.15291031  .00000283  00000+0  94079-4 0  9998
2 43078  86.4029 333.1416 0002127  76.5880 283.5553 14.34217184430654
IRIDIUM 131             
1 43079U 17083K   26066.18804446  .00000366  00000+0  12371-3 0  9998
2 43079  86.4027   4.7935 0002301  84.7858 275.3600 14.34219504429489
IRIDIUM 144             
1 43249U 18030A   26066.15925243  .00000018  00000+0 -50339-6 0  9990
2 43249  86.4008 333.0718 0002026  90.3754 269.7673 14.34217639415519
IRIDIUM 149             
1 43250U 18030B   26066.16559507  .00000001  00000+0 -65812-5 0  9992
2 43250  86.4009 333.0372 0002063  83.1694 276.9736 14.34217528415531
IRIDIUM 157             
1 43251U 18030C   26066.11485258  .00000140  00000+0  42774-4 0  9993
2 43251  86.4012 333.1094 0002158  84.6954 275.4488 14.34218822415501
IRIDIUM 140             
1 43252U 18030D   26066.06411336  .00000042  00000+0  79674-5 0  9995
2 43252  86.4012 333.1435 0001999  84.6729 275.4695 14.34217832415558
IRIDIUM 145             
1 43253U 18030E   26066.19095719  .00000338  00000+0  11377-3 0  9995
2 43253  86.4011 333.0630 0001918  94.8117 265.3298 14.34221411415509
IRIDIUM 146             
1 43254U 18030F   26066.17193730  .00000277  00000+0  91820-4 0  9990
2 43254  86.4013 333.0835 0002150  89.7602 270.3840 14.34216748415517
IRIDIUM 148             
1 43255U 18030G   26066.14022489 -.00000088  00000+0 -38601-4 0  9990
2 43255  86.4010 333.1381 0002082  86.5878 273.5556 14.34217206415548
IRIDIUM 142             
1 43256U 18030H   26066.17828001 -.00000012  00000+0 -11493-4 0  9995
2 43256  86.4008 333.0150 0001881  92.9443 267.1968 14.34217414415518
IRIDIUM 150             
1 43257U 18030J   26066.14656657  .00000127  00000+0  38202-4 0  9991
2 43257  86.4013 333.1413 0002056  85.8951 274.2479 14.34217964415536
IRIDIUM 143             
1 43258U 18030K   26066.12753916 -.00000037  00000+0 -20101-4 0  9997
2 43258  86.4012 333.2373 0001914  89.6038 270.5377 14.34217408415463
IRIDIUM 161             
1 43478U 18047C   26066.18332015  .00000378  00000+0  10649-3 0  9999
2 43478  86.4506 131.1304 0002515  91.1888 268.9601 14.43285691410424
